{
    "links": {
        "self": "http://www.neowsapp.com/rest/v1/neo/3604842?api_key=iIulBulltgU6a56xZRHN4H3l9WmuAYTsLGpBGhQ2"
    },
    "id": "3604842",
    "neo_reference_id": "3604842",
    "name": "(2012 KN18)",
    "designation": "2012 KN18",
    "nasa_jpl_url": "http://ssd.jpl.nasa.gov/sbdb.cgi?sstr=3604842",
    "absolute_magnitude_h": 24.5,
    "estimated_diameter": {
        "kilometers": {
            "estimated_diameter_min": 0.0334622374,
            "estimated_diameter_max": 0.0748238376
        },
        "meters": {
            "estimated_diameter_min": 33.4622374455,
            "estimated_diameter_max": 74.8238376074
        },
        "miles": {
            "estimated_diameter_min": 0.0207924639,
            "estimated_diameter_max": 0.0464933628
        },
        "feet": {
            "estimated_diameter_min": 109.7842471007,
            "estimated_diameter_max": 245.4850393757
        }
    },
    "is_potentially_hazardous_asteroid": false,
    "close_approach_data": [
        {
            "close_approach_date": "2001-11-22",
            "close_approach_date_full": "2001-Nov-22 09:02",
            "epoch_date_close_approach": 1006419720000,
            "relative_velocity": {
                "kilometers_per_second": "7.3561130991",
                "kilometers_per_hour": "26482.0071568082",
                "miles_per_hour": "16454.8893914067"
            },
            "miss_distance": {
                "astronomical": "1.4413176395",
                "lunar": "560.6725617655",
                "kilometers": "215618048.862627865",
                "miles": "133978842.881739937"
            },
            "orbiting_body": "Juptr"
        },
        {
            "close_approach_date": "2012-06-05",
            "close_approach_date_full": "2012-Jun-05 14:49",
            "epoch_date_close_approach": 1338907740000,
            "relative_velocity": {
                "kilometers_per_second": "10.2077973548",
                "kilometers_per_hour": "36748.0704773437",
                "miles_per_hour": "22833.8219029917"
            },
            "miss_distance": {
                "astronomical": "0.0427034089",
                "lunar": "16.6116260621",
                "kilometers": "6388339.013179043",
                "miles": "3969529.7932470734"
            },
            "orbiting_body": "Earth"
        },
        {
            "close_approach_date": "2014-01-21",
            "close_approach_date_full": "2014-Jan-21 01:06",
            "epoch_date_close_approach": 1390266360000,
            "relative_velocity": {
                "kilometers_per_second": "8.6406179793",
                "kilometers_per_hour": "31106.2247255966",
                "miles_per_hour": "19328.1983579686"
            },
            "miss_distance": {
                "astronomical": "1.9901104148",
                "lunar": "774.1529513572",
                "kilometers": "297716279.118896476",
                "miles": "184992317.6367283288"
            },
            "orbiting_body": "Juptr"
        }
    ],
    "orbital_data": {
        "orbit_id": "15",
        "orbit_determination_date": "2017-04-06 08:49:43",
        "first_observation_date": "2012-05-22",
        "last_observation_date": "2012-06-06",
        "data_arc_in_days": 15,
        "observations_used": 66,
        "orbit_uncertainty": "8",
        "minimum_orbit_intersection": ".0319732",
        "jupiter_tisserand_invariant": "3.051",
        "epoch_osculation": "2456074.5",
        "eccentricity": ".6312083693278905",
        "semi_major_axis": "2.686595042362845",
        "inclination": "2.177684914366248",
        "ascending_node_longitude": "178.5719547311189",
        "orbital_period": "1608.428427924857",
        "perihelion_distance": ".9907937666285987",
        "perihelion_argument": "102.8008914465955",
        "aphelion_distance": "4.382396318097091",
        "perihelion_time": "2456104.593966190916",
        "mean_anomaly": "353.2643395001995",
        "mean_motion": ".2238209632146706",
        "equinox": "J2000",
        "orbit_class": {
            "orbit_class_type": "APO",
            "orbit_class_description": "Near-Earth asteroid orbits which cross the Earth’s orbit similar to that of 1862 Apollo",
            "orbit_class_range": "a (semi-major axis) > 1.0 AU; q (perihelion) < 1.017 AU"
        }
    },
    "is_sentry_object": false
}